CTC2_L_00450016-03
1 59559U 26861FG  26070.40848380  .00000000  00000+0  00000-0 0  9995
2 59559  60.0000 180.0000 0000000   0.0000   0.0000 15.90815360    19
CTC2_L_00450016-04
1 59560U 22325PQ  26070.40848380  .00000000  00000+0  00000-0 0  9998
2 59560  60.0000 180.0000 0000000   0.0000  90.0000 15.90815360    10
CTC2_L_00450017-01
1 59561U 22545VD  26070.40848380  .00000000  00000+0  00000-0 0  9993
2 59561  60.0000 192.0000 0000000   0.0000 192.0000 15.90815360    17
CTC2_L_00450017-02
1 59562U 25337SZ  26070.40848380  .00000000  00000+0  00000-0 0  9996
2 59562  60.0000 192.0000 0000000   0.0000 282.0000 15.90815360    18
CTC2_L_00450017-03
1 59563U 26294FM  26070.40848380  .00000000  00000+0  00000-0 0  9990
2 59563  60.0000 192.0000 0000000   0.0000  12.0000 15.90815360    10
CTC2_L_00450017-04
1 59564U 23327DM  26070.40848380  .00000000  00000+0  00000-0 0  9995
2 59564  60.0000 192.0000 0000000   0.0000 102.0000 15.90815360    11
CTC2_L_00450018-01
1 59565U 22626PN  26070.40848380  .00000000  00000+0  00000-0 0  9997
2 59565  60.0000 204.0000 0000000   0.0000 204.0000 15.90815360    19
CTC2_L_00450018-02
1 59566U 23681YG  26070.40848380  .00000000  00000+0  00000-0 0  9990
2 59566  60.0000 204.0000 0000000   0.0000 294.0000 15.90815360    19
CTC2_L_00450018-03
1 59567U 25165FK  26070.40848380  .00000000  00000+0  00000-0 0  9990
2 59567  60.0000 204.0000 0000000   0.0000  24.0000 15.90815360    11
CTC2_L_00450018-04
1 59568U 26716TR  26070.40848380  .00000000  00000+0  00000-0 0  9994
2 59568  60.0000 204.0000 0000000   0.0000 114.0000 15.90815360    12
CTC2_L_00450019-01
1 59569U 24104XJ  26070.40848380  .00000000  00000+0  00000-0 0  9994
2 59569  60.0000 216.0000 0000000   0.0000 216.0000 15.90815360    19
CTC2_L_00450019-02
1 59570U 25915DC  26070.40848380  .00000000  00000+0  00000-0 0  9997
2 59570  60.0000 216.0000 0000000   0.0000 306.0000 15.90815360    11
CTC2_L_00450019-03
1 59571U 26777OT  26070.40848380  .00000000  00000+0  00000-0 0  9995
2 59571  60.0000 216.0000 0000000   0.0000  36.0000 15.90815360    12
CTC2_L_00450019-04
1 59572U 23052JY  26070.40848380  .00000000  00000+0  00000-0 0  9999
2 59572  60.0000 216.0000 0000000   0.0000 126.0000 15.90815360    13
CTC2_L_00450020-01
1 59573U 24354BF  26070.40848380  .00000000  00000+0  00000-0 0  9996
2 59573  60.0000 228.0000 0000000   0.0000 228.0000 15.90815360    10
CTC2_L_00450020-02
1 59574U 23568BX  26070.40848380  .00000000  00000+0  00000-0 0  9993
2 59574  60.0000 228.0000 0000000   0.0000 318.0000 15.90815360    11
CTC2_L_00450020-03
1 59575U 24189IW  26070.40848380  .00000000  00000+0  00000-0 0  9994
2 59575  60.0000 228.0000 0000000   0.0000  48.0000 15.90815360    12
CTC2_L_00450020-04
1 59576U 25170SM  26070.40848380  .00000000  00000+0  00000-0 0  9996
2 59576  60.0000 228.0000 0000000   0.0000 138.0000 15.90815360    13
CTC2_L_00450021-01
1 59577U 25776RK  26070.40848380  .00000000  00000+0  00000-0 0  9999
2 59577  60.0000 240.0000 0000000   0.0000 240.0000 15.90815360    12
CTC2_L_00450021-02
1 59578U 26669UV  26070.40848380  .00000000  00000+0  00000-0 0  9992
2 59578  60.0000 240.0000 0000000   0.0000 330.0000 15.90815360    13
CTC2_L_00450021-03
1 59579U 23365FN  26070.40848380  .00000000  00000+0  00000-0 0  9993
2 59579  60.0000 240.0000 0000000   0.0000  60.0000 15.90815360    14
CTC2_L_00450021-04
1 59580U 24426DQ  26070.40848380  .00000000  00000+0  00000-0 0  9994
2 59580  60.0000 240.0000 0000000   0.0000 150.0000 15.90815360    16
CTC2_L_00450022-01
1 59581U 23541OS  26070.40848380  .00000000  00000+0  00000-0 0  9992
2 59581  60.0000 252.0000 0000000   0.0000 252.0000 15.90815360    13
CTC2_L_00450022-02
1 59582U 22458DF  26070.40848380  .00000000  00000+0  00000-0 0  9999
2 59582  60.0000 252.0000 0000000   0.0000 342.0000 15.90815360    14
CTC2_L_00450022-03
1 59583U 23851GO  26070.40848380  .00000000  00000+0  00000-0 0  9998
2 59583  60.0000 252.0000 0000000   0.0000  72.0000 15.90815360    15
CTC2_L_00450022-04
1 59584U 22908C   26070.40848380  .00000000  00000+0  00000-0 0  9991
2 59584  60.0000 252.0000 0000000   0.0000 162.0000 15.90815360    16
CTC2_L_00450023-01
1 59585U 24899JG  26070.40848380  .00000000  00000+0  00000-0 0  9993
2 59585  60.0000 264.0000 0000000   0.0000 264.0000 15.90815360    13
CTC2_L_00450023-02
1 59586U 22089QX  26070.40848380  .00000000  00000+0  00000-0 0  9993
2 59586  60.0000 264.0000 0000000   0.0000 354.0000 15.90815360    14
CTC2_L_00450023-03
1 59587U 22231X   26070.40848380  .00000000  00000+0  00000-0 0  9993
2 59587  60.0000 264.0000 0000000   0.0000  84.0000 15.90815360    15
CTC2_L_00450023-04
1 59588U 23291TB  26070.40848380  .00000000  00000+0  00000-0 0  9991
2 59588  60.0000 264.0000 0000000   0.0000 174.0000 15.90815360    16
CTC2_L_00450024-01
1 59589U 22490DH  26070.40848380  .00000000  00000+0  00000-0 0  9992
2 59589  60.0000 276.0000 0000000   0.0000 276.0000 15.90815360    13
CTC2_L_00450024-02
1 59590U 26770CK  26070.40848380  .00000000  00000+0  00000-0 0  9999
2 59590  60.0000 276.0000 0000000   0.0000   6.0000 15.90815360    16
CTC2_L_00450024-03
1 59591U 24687HM  26070.40848380  .00000000  00000+0  00000-0 0  9995
2 59591  60.0000 276.0000 0000000   0.0000  96.0000 15.90815360    16
CTC2_L_00450024-04
1 59592U 22316SL  26070.40848380  .00000000  00000+0  00000-0 0  9993
2 59592  60.0000 276.0000 0000000   0.0000 186.0000 15.90815360    17
CTC2_L_00450025-01
1 59593U 26807WS  26070.40848380  .00000000  00000+0  00000-0 0  9993
2 59593  60.0000 288.0000 0000000   0.0000 288.0000 15.90815360    14
CTC2_L_00450025-02
1 59594U 23021TZ  26070.40848380  .00000000  00000+0  00000-0 0  9999
2 59594  60.0000 288.0000 0000000   0.0000  18.0000 15.90815360    16
CTC2_L_00450025-03
1 59595U 25579GK  26070.40848380  .00000000  00000+0  00000-0 0  9990
2 59595  60.0000 288.0000 0000000   0.0000 108.0000 15.90815360    17
CTC2_L_00450025-04
1 59596U 23370IG  26070.40848380  .00000000  00000+0  00000-0 0  9998
2 59596  60.0000 288.0000 0000000   0.0000 198.0000 15.90815360    17
CTC2_L_00450026-01
1 59597U 22757RZ  26070.40848380  .00000000  00000+0  00000-0 0  9997
2 59597  60.0000 300.0000 0000000   0.0000 300.0000 15.90815360    18
CTC2_L_00450026-02
1 59598U 23576OI  26070.40848380  .00000000  00000+0  00000-0 0  9998
2 59598  60.0000 300.0000 0000000   0.0000  30.0000 15.90815360    19
CTC2_L_00450026-03
1 59599U 22652LR  26070.40848380  .00000000  00000+0  00000-0 0  9993
2 59599  60.0000 300.0000 0000000   0.0000 120.0000 15.90815360    10
CTC2_L_00450026-04
1 59600U 26335CH  26070.40848380  .00000000  00000+0  00000-0 0  9998
2 59600  60.0000 300.0000 0000000   0.0000 210.0000 15.90815360    13
CTC2_L_00450027-01
1 59601U 22605WG  26070.40848380  .00000000  00000+0  00000-0 0  9995
2 59601  60.0000 312.0000 0000000   0.0000 312.0000 15.90815360    10
CTC2_L_00450027-02
1 59602U 24619IP  26070.40848380  .00000000  00000+0  00000-0 0  9993
2 59602  60.0000 312.0000 0000000   0.0000  42.0000 15.90815360    11
CTC2_L_00450027-03
1 59603U 25991QI  26070.40848380  .00000000  00000+0  00000-0 0  9998
2 59603  60.0000 312.0000 0000000   0.0000 132.0000 15.90815360    12
CTC2_L_00450027-04
1 59604U 22257IK  26070.40848380  .00000000  00000+0  00000-0 0  9991
2 59604  60.0000 312.0000 0000000   0.0000 222.0000 15.90815360    13
CTC2_L_00450028-01
1 59605U 25942MK  26070.40848380  .00000000  00000+0  00000-0 0  9996
2 59605  60.0000 324.0000 0000000   0.0000 324.0000 15.90815360    10
CTC2_L_00450028-02
1 59606U 25044UH  26070.40848380  .00000000  00000+0  00000-0 0  9990
2 59606  60.0000 324.0000 0000000   0.0000  54.0000 15.90815360    11
CTC2_L_00450028-03
1 59607U 25014ZX  26070.40848380  .00000000  00000+0  00000-0 0  9998
2 59607  60.0000 324.0000 0000000   0.0000 144.0000 15.90815360    12
CTC2_L_00450028-04
1 59608U 24946YS  26070.40848380  .00000000  00000+0  00000-0 0  9992
2 59608  60.0000 324.0000 0000000   0.0000 234.0000 15.90815360    13
CTC2_L_00450029-01
1 59609U 22239HT  26070.40848380  .00000000  00000+0  00000-0 0  9996
2 59609  60.0000 336.0000 0000000   0.0000 336.0000 15.90815360    10
CTC2_L_00450029-02
1 59610U 26815KV  26070.40848380  .00000000  00000+0  00000-0 0  9992
2 59610  60.0000 336.0000 0000000   0.0000  66.0000 15.90815360    12
CTC2_L_00450029-03
1 59611U 24938AX  26070.40848380  .00000000  00000+0  00000-0 0  9997
2 59611  60.0000 336.0000 0000000   0.0000 156.0000 15.90815360    13
CTC2_L_00450029-04
1 59612U 25590HO  26070.40848380  .00000000  00000+0  00000-0 0  9993
2 59612  60.0000 336.0000 0000000   0.0000 246.0000 15.90815360    14
CTC2_L_00450030-01
1 59613U 26726TV  26070.40848380  .00000000  00000+0  00000-0 0  9996
2 59613  60.0000 348.0000 0000000   0.0000 348.0000 15.90815360    11
CTC2_L_00450030-02
1 59614U 22437KO  26070.40848380  .00000000  00000+0  00000-0 0  9992
2 59614  60.0000 348.0000 0000000   0.0000  78.0000 15.90815360    12
CTC2_L_00450030-03
1 59615U 24941NH  26070.40848380  .00000000  00000+0  00000-0 0  9995
2 59615  60.0000 348.0000 0000000   0.0000 168.0000 15.90815360    13
CTC2_L_00450030-04
1 59616U 26186TI  26070.40848380  .00000000  00000+0  00000-0 0  9999
2 59616  60.0000 348.0000 0000000   0.0000 258.0000 15.90815360    14
